QIANFAN-60              
1 62790U 25016F   25359.74121757  .00000177  00000+0  25603-3 0  9999
2 62790  88.9762 101.7328 0014098 307.9456  52.0421 13.50987807 48985
QIANFAN-61              
1 62791U 25016G   25359.77403928  .00000179  00000+0  25900-3 0  9998
2 62791  88.9829 101.9011 0013033 307.4431  52.5534 13.50984260 49001
QIANFAN-62              
1 62792U 25016H   25359.70412044  .00000182  00000+0  26400-3 0  9991
2 62792  88.9776 101.7698 0014430 307.8203  52.1642 13.50980823 48988
QIANFAN-63              
1 62793U 25016J   25359.72876874  .00000189  00000+0  27428-3 0  9997
2 62793  88.9782 101.7196 0014533 313.6357  46.3588 13.50987596 49022
QIANFAN-64              
1 62794U 25016K   25359.69586089  .00000190  00000+0  27570-3 0  9990
2 62794  88.9769 101.6953 0012405 306.2447  53.7557 13.50982545 49018
QIANFAN-65              
1 62795U 25016L   25359.76579359  .00000180  00000+0  26056-3 0  9998
2 62795  88.9765 101.7137 0012264 307.9958  52.0085 13.50981848 49000
QIANFAN-66              
1 62796U 25016M   25359.72056264  .00000179  00000+0  25897-3 0  9990
2 62796  88.9785 101.6910 0013318 302.9129  57.0740 13.50981043 49041
QIANFAN-67              
1 62797U 25016N   25359.72477418  .00000195  00000+0  28373-3 0  9999
2 62797  88.9775 101.7149 0013358 310.7087  49.2903 13.50985257 49012
QIANFAN-68              
1 62798U 25016P   25359.71644639  .00000185  00000+0  26816-3 0  9999
2 62798  88.9779 101.7614 0013401 308.7606  51.2347 13.50987627 48991
QIANFAN-69              
1 62799U 25016Q   25359.73291191  .00000179  00000+0  25908-3 0  9997
2 62799  88.9758 101.6264 0014158 309.8598  50.1307 13.50990399 49031
QIANFAN-70              
1 62800U 25016R   25359.74942604  .00000180  00000+0  26107-3 0  9997
2 62800  88.9779 101.7659 0013681 299.0021  60.9758 13.50981345 48991
QIANFAN-71              
1 62801U 25016S   25359.74523175  .00000167  00000+0  24000-3 0  9991
2 62801  88.9773 101.7450 0014113 313.7753  46.2230 13.50980863 48998
QIANFAN-72              
1 62802U 25016T   25359.76168443  .00000194  00000+0  28201-3 0  9994
2 62802  88.9763 101.7554 0017487 321.0495  38.9396 13.50980659 48988
QIANFAN-73              
1 63159U 25046A   25359.71478422  .00000156  00000+0  22266-3 0  9992
2 63159  88.9774 318.6799 0016976  85.5649 274.7441 13.50980310 49167
QIANFAN-74              
1 63160U 25046B   25359.69817991  .00000178  00000+0  25651-3 0  9994
2 63160  88.9774 318.5703 0002008  73.4925 286.6446 13.50977162 49222
QIANFAN-75              
1 63161U 25046C   25359.68544794  .00000197  00000+0  28625-3 0  9997
2 63161  88.9776 318.8055 0018090  88.2634 272.0589 13.50982643 49099
QIANFAN-76              
1 63162U 25046D   25359.68209543  .00000139  00000+0  19655-3 0  9997
2 63162  88.9774 318.7864 0015641  88.5808 271.7135 13.50982659 49102
QIANFAN-77              
1 63163U 25046E   25359.65852779  .00000439  00000+0  30976-3 0  9992
2 63163  88.9776 316.6899 0016627  45.2717 314.9810 13.96097729 50257
QIANFAN-78              
1 63164U 25046F   25359.72298591  .00000164  00000+0  23543-3 0  9994
2 63164  88.9774 318.6460 0017005  90.5885 269.7215 13.50980722 49182
QIANFAN-79              
1 63165U 25046G   25359.67756659  .00000177  00000+0  25515-3 0  9998
2 63165  88.9778 318.7587 0016706  89.1425 271.1640 13.50982536 49127
QIANFAN-80              
1 63166U 25046H   25359.69410521  .00000196  00000+0  28401-3 0  9994
2 63166  88.9775 318.4636 0015638  92.7446 267.5496 13.50980503 49280
QIANFAN-81              
1 63167U 25046J   25359.74631419  .00000201  00000+0  29232-3 0  9992
2 63167  88.9775 318.5261 0016726  82.5404 277.7647 13.51006552 49247
QIANFAN-82              
1 63168U 25046K   25359.70655992  .00000193  00000+0  27938-3 0  9992
2 63168  88.9775 318.5742 0014829  89.3513 270.9337 13.50979534 49227
QIANFAN-83              
1 63169U 25046L   25359.70252822  .00000214  00000+0  26130-3 0  9995
2 63169  88.9776 318.3255 0016210  76.1072 284.1887 13.61978841 49360
QIANFAN-84              
1 63170U 25046M   25359.66019833  .00000172  00000+0  24757-3 0  9991
2 63170  88.9774 318.7115 0017814  86.6593 273.6596 13.50989839 49147
QIANFAN-85              
1 63171U 25046N   25359.65705112  .00000189  00000+0  27335-3 0  9996
2 63171  88.9774 318.5835 0015180  88.4800 271.8090 13.50980380 49219
QIANFAN-86              
1 63172U 25046P   25359.73944572  .00000189  00000+0  27393-3 0  9995
2 63172  88.9777 318.4375 0013037  91.6568 268.6076 13.50980098 49301
QIANFAN-87              
1 63173U 25046Q   25359.78486051  .00000172  00000+0  24681-3 0  9993
2 63173  88.9773 318.5440 0013728  87.6117 272.6606 13.50977671 49244
QIANFAN-88              
1 63174U 25046R   25359.72706455  .00000183  00000+0  26397-3 0  9999
2 63174  88.9775 318.5048 0014050  94.7291 265.5465 13.50984287 49269
QIANFAN-89              
1 63175U 25046S   25359.68991205  .00000202  00000+0  29342-3 0  9999
2 63175  88.9775 318.6977 0018487  86.9637 273.3630 13.50980276 49150
QIANFAN-90              
1 63176U 25046T   25359.71864612  .00000172  00000+0  24669-3 0  9998
2 63176  88.9775 318.6671 0015432  85.1471 275.1442 13.50980443 49175
QIANFAN-91              
1 66033U 25233A   25358.70278488 -.02095777  00000+0 -28630+1 0  9997
2 66033  88.9935  60.9015 0011559  10.6267 349.5133 13.63101017  9613
QIANFAN-92              
1 66034U 25233B   25358.68014428 -.01868850  00000+0 -27356+1 0  9990
2 66034  88.9931  60.8951 0014583   2.5069 357.6158 13.58977676  9611
QIANFAN-93              
1 66035U 25233C   25358.63316265 -.02151232  00000+0 -30113+1 0  9995
2 66035  88.9935  60.9114 0013448 353.8000   6.2989 13.61685974  9603
QIANFAN-94              
1 66036U 25233D   25358.92599416 -.02090609  00000+0 -27114+1 0  9996
2 66036  88.9951  60.8610 0013153  23.8360 336.3406 13.66296627  9652
QIANFAN-95              
1 66037U 25233E   25358.51714505 -.02112450  00000+0 -14104+1 0  9994
2 66037  88.9952  60.7274 0013996 359.2264   0.8893 14.05303347  9692
QIANFAN-96              
1 66038U 25233F   25359.09824983 -.02039392  00000+0 -29276+1 0  9990
2 66038  88.9953  60.8675 0011019   5.1772 354.9496 13.59894796  9665
QIANFAN-97              
1 66039U 25233G   25358.68105950 -.02116660  00000+0 -30246+1 0  9994
2 66039  88.9929  60.8892 0012081   8.4137 351.7219 13.60333922  9615
QIANFAN-98              
1 66040U 25233H   25359.08748955 -.01812300  00000+0 -18927+1 0  9994
2 66040  88.9937  60.7577 0016582  14.3416 345.8218 13.79505825  9729
QIANFAN-99              
1 66041U 25233J   25359.13411576 -.01996556  00000+0 -28670+1 0  9999
2 66041  88.9939  60.8570 0011900   5.0069 355.1204 13.59783738  9678
QIANFAN-100             
1 66042U 25233K   25359.03988666 -.02059597  00000+0 -24367+1 0  9993
2 66042  88.9975  60.7909 0014426  13.6428 346.5122 13.71854608  9700
QIANFAN-101             
1 66043U 25233L   25359.71182506  .00000243  00000+0  94636-4 0  9998
2 66043  88.9949  60.5357 0014467   1.9432 358.1815 14.26683287  9899
QIANFAN-102             
1 66044U 25233M   25359.18459547 -.01990856  00000+0 -26526+1 0  9992
2 66044  88.9952  60.8267 0015808   8.6566 351.4863 13.64412269  9697
QIANFAN-103             
1 66045U 25233N   25358.99498036 -.01906822  00000+0 -26877+1 0  9996
2 66045  88.9949  60.8724 0011797   3.0556 357.0671 13.61450354  9652
QIANFAN-104             
1 66046U 25233P   25358.97781065 -.02108129  00000+0 -26585+1 0  9993
2 66046  88.9955  60.8713 0015384  32.5361 327.6745 13.68045735  9661
QIANFAN-105             
1 66047U 25233Q   25358.97520527 -.02001980  00000+0 -18174+1 0  9990
2 66047  88.9949  60.7961 0014559 354.4430   5.6578 13.87537819  9695
QIANFAN-106             
1 66048U 25233R   25358.71706923 -.01956180  00000+0 -26485+1 0  9993
2 66048  88.9973  60.9044 0009008   8.4030 351.7277 13.63383273  9623
QIANFAN-107             
1 66049U 25233S   25358.64817491 -.02136821  00000+0 -28499+1 0  9999
2 66049  88.9941  60.8912 0016936  18.9255 341.2530 13.64640550  9615
QIANFAN-108             
1 66050U 25233T   25358.93313201 -.01919294  00000+0 -26023+1 0  9996
2 66050  88.9943  60.8628 0015662  11.2283 348.9222 13.63873308  9659
